{
  "type": "FeatureCollection",
  "features": [
    {
      "type": "Feature",
      "geometry": {
        "type": "Point",
        "coordinates": [
          127,
          37.6
        ]
      },
      "properties": {
        "name": "incidents 1 긴급대응 거점 Emergency Response Location",
        "capacity": 12,
        "category": "clinic",
        "severity": 1,
        "reference_type": "hospital",
        "status": "open"
      }
    },
    {
      "type": "Feature",
      "geometry": {
        "type": "Point",
        "coordinates": [
          127.0002,
          37.60015
        ]
      },
      "properties": {
        "name": "incidents 2 긴급대응 거점 Emergency Response Location",
        "capacity": 35,
        "category": "shelter",
        "severity": 2,
        "reference_type": "school",
        "status": "limited"
      }
    },
    {
      "type": "Feature",
      "geometry": {
        "type": "Point",
        "coordinates": [
          127.0004,
          37.600300000000004
        ]
      },
      "properties": {
        "name": "incidents 3 긴급대응 거점 Emergency Response Location",
        "capacity": 80,
        "category": "depot",
        "severity": 3,
        "reference_type": "station",
        "status": "closed"
      }
    },
    {
      "type": "Feature",
      "geometry": {
        "type": "Point",
        "coordinates": [
          127.0006,
          37.60045
        ]
      },
      "properties": {
        "name": "incidents 4 긴급대응 거점 Emergency Response Location",
        "capacity": 160,
        "category": "clinic",
        "severity": 4,
        "reference_type": "hospital",
        "status": "open"
      }
    },
    {
      "type": "Feature",
      "geometry": {
        "type": "Point",
        "coordinates": [
          127.0008,
          37.6006
        ]
      },
      "properties": {
        "name": "incidents 5 긴급대응 거점 Emergency Response Location",
        "capacity": 420,
        "category": "shelter",
        "severity": 5,
        "reference_type": "school",
        "status": "limited"
      }
    },
    {
      "type": "Feature",
      "geometry": {
        "type": "Point",
        "coordinates": [
          127.001,
          37.60075
        ]
      },
      "properties": {
        "name": "incidents 6 긴급대응 거점 Emergency Response Location",
        "capacity": 900,
        "category": "depot",
        "severity": 1,
        "reference_type": "station",
        "status": "closed"
      }
    },
    {
      "type": "Feature",
      "geometry": {
        "type": "Point",
        "coordinates": [
          127.0012,
          37.6009
        ]
      },
      "properties": {
        "name": "incidents 7 긴급대응 거점 Emergency Response Location",
        "capacity": 12,
        "category": "clinic",
        "severity": 2,
        "reference_type": "hospital",
        "status": "open"
      }
    },
    {
      "type": "Feature",
      "geometry": {
        "type": "Point",
        "coordinates": [
          127.0014,
          37.60105
        ]
      },
      "properties": {
        "name": "incidents 8 긴급대응 거점 Emergency Response Location",
        "capacity": 35,
        "category": "shelter",
        "severity": 3,
        "reference_type": "school",
        "status": "limited"
      }
    },
    {
      "type": "Feature",
      "geometry": {
        "type": "Point",
        "coordinates": [
          127.0016,
          37.6012
        ]
      },
      "properties": {
        "name": "incidents 9 긴급대응 거점 Emergency Response Location",
        "capacity": 80,
        "category": "depot",
        "severity": 4,
        "reference_type": "station",
        "status": "closed"
      }
    },
    {
      "type": "Feature",
      "geometry": {
        "type": "Point",
        "coordinates": [
          127.0018,
          37.601350000000004
        ]
      },
      "properties": {
        "name": "incidents 10 긴급대응 거점 Emergency Response Location",
        "capacity": 160,
        "category": "clinic",
        "severity": 5,
        "reference_type": "hospital",
        "status": "open"
      }
    },
    {
      "type": "Feature",
      "geometry": {
        "type": "Point",
        "coordinates": [
          127.002,
          37.6015
        ]
      },
      "properties": {
        "name": "incidents 11 긴급대응 거점 Emergency Response Location",
        "capacity": 420,
        "category": "shelter",
        "severity": 1,
        "reference_type": "school",
        "status": "limited"
      }
    },
    {
      "type": "Feature",
      "geometry": {
        "type": "Point",
        "coordinates": [
          127.0022,
          37.60165
        ]
      },
      "properties": {
        "name": "incidents 12 긴급대응 거점 Emergency Response Location",
        "capacity": 900,
        "category": "depot",
        "severity": 2,
        "reference_type": "station",
        "status": "closed"
      }
    }
  ]
}
